     2.100          NAVIGATION                              RINEX VERSION / TYPE
fic2rin                                 09/12/2012 00:44:19 PGM / RUN BY / DATE
                                                            END OF HEADER
11 12  9 11  6  0  0.0 -.301491934806D-03 -.397903932026D-11  .000000000000D+00
     .750000000000D+02  .123437500000D+02  .619918679244D-08  .471599682603D+00
     .629574060440D-06  .134542383021D-01  .896304845810D-05  .515367889404D+04
     .194400000000D+06 -.245869159698D-06  .289305517067D+01  .100582838058D-06
     .888709345991D+00  .170687500000D+03  .108700442598D+01 -.898573143464D-08
     .279654505876D-09  .100000000000D+01  .170500000000D+04  .000000000000D+00
     .240000000000D+01  .000000000000D+00 -.121071934700D-07  .750000000000D+02
     .187206000000D+06  .400000000000D+01
12 12  9 11  6  0  0.0  .902763567865D-04  .204636307899D-11  .000000000000D+00
     .630000000000D+02 -.443437500000D+02  .428946438769D-08 -.316549008165D-01
    -.244565308094D-05  .400093256030D-02  .355765223503D-05  .515372125053D+04
     .194400000000D+06  .819563865662D-07  .110494848405D+01  .558793544769D-07
     .980851438708D+00  .320843750000D+03  .145376979420D+00 -.824034324337D-08
    -.193222334200D-09  .100000000000D+01  .170500000000D+04  .000000000000D+00
     .240000000000D+01  .000000000000D+00 -.121071934700D-07  .630000000000D+02
     .187206000000D+06  .400000000000D+01
13 12  9 11  6  0  0.0  .181932002306D-03 -.261479726760D-11  .000000000000D+00
     .730000000000D+02  .413125000000D+02  .399659504565D-08  .259635597713D+01
     .227801501751D-05  .482802698389D-02  .950135290623D-05  .515362113762D+04
     .194400000000D+06  .139698386192D-06 -.920756790153D+00  .372529029846D-08
     .984438869327D+00  .207718750000D+03  .207806748785D+01 -.765889045210D-08
    -.262868092368D-09  .100000000000D+01  .170500000000D+04  .000000000000D+00
     .240000000000D+01  .000000000000D+00 -.111758708954D-07  .730000000000D+02
     .187206000000D+06  .400000000000D+01
15 12  9 11  6  0  0.0 -.951592810452D-04 -.682121026330D-12  .000000000000D+00
     .210000000000D+02  .273750000000D+02  .494199156807D-08  .243041122971D+01
     .151991844177D-05  .460709934123D-02  .998750329018D-05  .515362975311D+04
     .194400000000D+06 -.135973095894D-06 -.103952867032D+01  .819563865662D-07
     .943907157156D+00  .177687500000D+03  .361619275923D-01 -.814855370568D-08
    -.284654714154D-09  .100000000000D+01  .170500000000D+04  .000000000000D+00
     .240000000000D+01  .000000000000D+00 -.102445483208D-07  .210000000000D+02
     .187206000000D+06  .400000000000D+01
16 12  9 11  6  0  0.0 -.245770905167D-03 -.795807864051D-12  .000000000000D+00
     .780000000000D+02 -.414062500000D+02  .414052961254D-08 -.225357935524D+01
    -.214576721191D-05  .653519039042D-02  .404566526413D-05  .515374433136D+04
     .194400000000D+06 -.633299350739D-07  .112317441279D+01 -.949949026108D-07
     .981634114510D+00  .313593750000D+03  .312029322759D-01 -.806890753096D-08
    -.842892252703D-10  .100000000000D+01  .170500000000D+04  .000000000000D+00
     .240000000000D+01  .000000000000D+00 -.977888703346D-08  .780000000000D+02
     .187206000000D+06  .400000000000D+01
17 12  9 11  6  0  0.0  .975071452558D-04 -.329691829393D-11  .000000000000D+00
     .270000000000D+02 -.739375000000D+02  .407659837811D-08  .311762911187D+01
    -.375881791115D-05  .750962377060D-02  .101774930954D-04  .515374113083D+04
     .194400000000D+06  .558793544769D-08  .216305562589D+01 -.428408384323D-07
     .963595904494D+00  .182187500000D+03 -.229709718311D+01 -.770532095755D-08
     .123576576032D-09  .100000000000D+01  .170500000000D+04  .000000000000D+00
     .240000000000D+01  .000000000000D+00 -.107102096081D-07  .270000000000D+02
     .187206000000D+06  .400000000000D+01
18 12  9 11  6  0  0.0  .214399304241D-03  .181898940355D-11  .000000000000D+00
     .840000000000D+02 -.437500000000D+00  .556630328745D-08 -.170786501701D+01
     .726431608200D-07  .136534506455D-01  .534206628799D-05  .515372176170D+04
     .194400000000D+06  .255182385445D-06 -.205665367776D+01 -.186264514923D-07
     .928737651960D+00  .254218750000D+03 -.214593008512D+01 -.842927968476D-08
     .142863093678D-11  .100000000000D+01  .170500000000D+04  .000000000000D+00
     .240000000000D+01  .000000000000D+00 -.107102096081D-07  .840000000000D+02
     .187206000000D+06  .400000000000D+01
20 12  9 11  6  0  0.0  .679646618664D-04  .795807864051D-12  .000000000000D+00
     .600000000000D+02 -.343750000000D+00  .563630620335D-08 -.126579704516D+01
     .141561031342D-06  .500250014011D-02  .592879951000D-05  .515363203812D+04
     .194400000000D+06  .130385160446D-07 -.211032010774D+01  .143423676491D-06
     .929322721176D+00  .250843750000D+03  .127707344301D+01 -.857535719805D-08
    -.860750139413D-10  .100000000000D+01  .170500000000D+04  .000000000000D+00
     .240000000000D+01  .000000000000D+00 -.791624188423D-08  .600000000000D+02
     .187206000000D+06  .400000000000D+01
21 12  9 11  6  0  0.0 -.248935539275D-03 -.238742359215D-11  .000000000000D+00
     .820000000000D+02  .211875000000D+02  .531307845390D-08 -.563164755078D+00
     .141374766827D-05  .193100564647D-01  .840239226818D-05  .515379780197D+04
     .194400000000D+06  .111758708954D-07 -.310643866192D+01  .324100255966D-06
     .931841014690D+00  .205562500000D+03 -.221754831639D+01 -.865643200371D-08
     .444304221340D-09  .100000000000D+01  .170500000000D+04  .000000000000D+00
     .240000000000D+01  .000000000000D+00 -.111758708954D-07  .820000000000D+02
     .187206000000D+06  .400000000000D+01
22 12  9 11  6  0  0.0  .147748738527D-03  .568434188608D-12  .000000000000D+00
     .690000000000D+02 -.412500000000D+01  .563844914975D-08 -.247284013012D+01
    -.346451997757D-06  .631573877763D-02  .564940273762D-05  .515366995239D+04
     .194400000000D+06  .115483999252D-06 -.205349952105D+01 -.372529029846D-08
     .926465156478D+00  .250187500000D+03 -.200674447344D+01 -.852392648432D-08
    -.389301930274D-10  .100000000000D+01  .170500000000D+04  .000000000000D+00
     .340000000000D+01  .000000000000D+00 -.172294676304D-07  .690000000000D+02
     .187206000000D+06  .400000000000D+01
23 12  9 11  6  0  0.0  .165743753314D-03 -.397903932026D-11  .000000000000D+00
     .700000000000D+02  .320312500000D+02  .463090718159D-08  .189724278915D+01
     .181049108505D-05  .824423064478D-02  .962428748608D-05  .515359020042D+04
     .194400000000D+06 -.670552253723D-07 -.100222521898D+01  .182539224625D-06
     .958733938683D+00  .196156250000D+03 -.293850442199D+01 -.803962059675D-08
    -.308227124611D-09  .100000000000D+01  .170500000000D+04  .000000000000D+00
     .240000000000D+01  .000000000000D+00 -.200234353542D-07  .700000000000D+02
     .187206000000D+06  .400000000000D+01
25 12  9 11  6  0  0.0  .424417667091D-04  .125055521494D-11  .000000000000D+00
     .104000000000D+03 -.387812500000D+02  .445482841863D-08 -.121983250436D+01
    -.210665166378D-05  .183045107406D-02  .352412462234D-05  .515366172409D+04
     .194400000000D+06  .132247805595D-06  .106963754761D+01  .204890966415D-07
     .969717679765D+00  .318781250000D+03  .778723077399D+00 -.825534386821D-08
    -.195008122871D-09  .100000000000D+01  .170500000000D+04  .000000000000D+00
     .340000000000D+01  .000000000000D+00  .512227416039D-08  .104000000000D+03
     .187206000000D+06  .400000000000D+01
26 12  9 11  6  0  0.0 -.284742098302D-03  .129602995003D-10  .000000000000D+00
     .470000000000D+02  .413750000000D+02  .402695345306D-08  .176034402272D+01
     .183284282684D-05  .207728402456D-01  .107288360596D-04  .515366536903D+04
     .194400000000D+06 -.247731804848D-06 -.927193483410D+00 -.502914190292D-06
     .981947180442D+00  .183562500000D+03  .120645914072D+01 -.767424823467D-08
    -.201794119821D-09  .100000000000D+01  .170500000000D+04  .000000000000D+00
     .240000000000D+01  .000000000000D+00 -.605359673500D-08  .470000000000D+02
     .187206000000D+06  .400000000000D+01
27 12  9 11  6  0  0.0  .429994426668D-03  .409272615798D-11  .000000000000D+00
     .550000000000D+02  .870312500000D+02  .404623997071D-08  .257848490404D+01
     .461935997009D-05  .217742458917D-01  .652857124805D-05  .515369184113D+04
     .194400000000D+06  .398606061935D-06 -.388240756929D-02  .122934579849D-06
     .982269752415D+00  .256750000000D+03 -.103734014927D+01 -.773746515362D-08
    -.217866217860D-10  .100000000000D+01  .170500000000D+04  .000000000000D+00
     .240000000000D+01  .000000000000D+00 -.419095158577D-08  .550000000000D+02
     .187206000000D+06  .400000000000D+01
28 12  9 11  6  0  0.0  .184244010597D-03  .375166564481D-11  .000000000000D+00
     .870000000000D+02 -.610000000000D+02  .404731144391D-08 -.252497110762D+01
    -.308081507683D-05  .180383961415D-01  .406615436077D-05  .515363325691D+04
     .194400000000D+06  .180676579475D-06  .112976715259D+01 -.372529029846D-08
     .980018099128D+00  .309031250000D+03 -.182069962075D+01 -.776818071876D-08
    -.960754304987D-10  .100000000000D+01  .170500000000D+04  .000000000000D+00
     .340000000000D+01  .000000000000D+00 -.107102096081D-07  .870000000000D+02
     .187206000000D+06  .400000000000D+01
29 12  9 11  6  0  0.0  .354232732207D-03  .420641299570D-11  .000000000000D+00
     .650000000000D+02 -.761250000000D+02  .420017495415D-08 -.376146384532D+00
    -.386498868465D-05  .186196307186D-02  .937655568123D-05  .515379421616D+04
     .194400000000D+06 -.819563865662D-07  .217168529626D+01 -.279396772385D-07
     .964170497754D+00  .202125000000D+03 -.105324064976D+01 -.787175646168D-08
     .350014579512D-10  .100000000000D+01  .170500000000D+04  .000000000000D+00
     .240000000000D+01  .000000000000D+00 -.977888703346D-08  .650000000000D+02
     .187206000000D+06  .400000000000D+01
